#aV2022  3 28  0  0  0.00000000     288 DD+AD WGS84 FIT  NGA
## 2203  86400.00000000   300.00000000 59666 0.0000000000000
+   32     1  2  3  4  5  6  7  8  9 10 11 12 13 14 15 16 17
+         18 19 20 21 22 23 24 25 26 27 28 29 30 31 32  0  0
+          0  0  0  0  0  0  0  0  0  0  0  0  0  0  0  0  0
+          0  0  0  0  0  0  0  0  0  0  0  0  0  0  0  0  0
+          0  0  0  0  0  0  0  0  0  0  0  0  0  0  0  0  0
++         2  2  2  2  2  2  2  2  2  2  2  2  2  2  2  2  2
++         2  2  2  2  2  2  2  2  2  2  2  2  2  2  2  0  0
++         0  0  0  0  0  0  0  0  0  0  0  0  0  0  0  0  0
++         0  0  0  0  0  0  0  0  0  0  0  0  0  0  0  0  0
++         0  0  0  0  0  0  0  0  0  0  0  0  0  0  0  0  0
%c cc cc ccc ccc cccc cccc cccc cccc ccccc ccccc ccccc ccccc
%c cc cc ccc ccc cccc cccc cccc cccc ccccc ccccc ccccc ccccc
%f  0.0000000  0.000000000  0.00000000000  0.000000000000000
%f  0.0000000  0.000000000  0.00000000000  0.000000000000000
%i    0    0    0    0      0      0      0      0         0
%i    0    0    0    0      0      0      0      0         0
/*      NGA, ST. LOUIS,MO.                                  
/*   EPHEMERIS COMPUTED FROM 2 DAYS OF DATA                 
/*   EPOCHA v7 SMOOTHER                                     
/*   G2139 IERS2010 SATIGS SATAPC                           
*  2022  3 28 12 50  0.00000000
P  1 -18596.735597 -13739.816075 -13670.338504    398.229109                    
V  1  16522.889162   2697.411121 -25390.377931     -0.089357                    
P  2  -3502.432066  15051.166573  22265.895015   -652.714176                    
V  2 -26397.424122  -3909.071890  -1418.385292     -0.003351                    
P  3 -12983.550910 -21423.184482   8891.908497   -183.088922                    
V  3  -1299.674802 -11520.055338 -29201.661841     -0.161598                    
P  4  -9552.323656 -11911.467250  21736.774703   -180.363989                    
V  4  19577.248752 -19433.495430  -2129.020225      0.028637                    
P  5   4525.753049  25345.831879   6031.492750    -76.273028                    
V  5  -5375.207780  -6474.623785  30574.356698     -0.013507                    
P  6 -19337.638793   7005.416019  16917.676637    246.727273                    
V  6 -20443.121155  -5978.844476 -20895.899177      0.131664                    
P  7 -26211.429211  -5656.909349   -594.863149    318.127543                    
V  7   -564.457520  -2910.141239  31207.158411      0.016094                    
P  8   -737.817163 -18721.921941 -18716.965974    -61.632923                    
V  8  16988.043698 -16761.902446  16471.396865     -0.014691                    
P  9 -17727.749433  -1071.391474  19691.574516   -347.217510                    
V  9  15802.932967 -19618.816366  13084.062466      0.022385                    
P 10  13749.449575  -5829.630456 -21805.952086   -360.834414                    
V 10   8629.823388  26657.890273  -1957.238481     -0.119915                    
P 11  -4504.047246  14495.288773  21792.502264    -51.720351                    
V 11 -26597.492308  -7641.942616   -426.879294      0.084346                    
P 12   9623.589803  24104.271926   5677.034647   -191.712667                    
V 12   -624.733612   7869.969528 -30772.534763     -0.057634                    
P 13  -8855.721239  20334.353757 -14639.755742    284.433164                    
V 13 -15433.556940  10167.830165  23865.339422      0.064154                    
P 14 -14669.245360   4687.367211 -21643.486901    -97.971591                    
V 14  -7219.208773 -26536.099034   -930.430076     -0.032796                    
P 15   3990.452760  18574.711257 -18848.446915    -73.329956                    
V 15 -15093.247509  17863.193941  15048.125699      0.029359                    
P 16   1448.237922 -24407.392552   9501.319695   -485.685436                    
V 16   5289.967131  11746.446147  29007.332541     -0.041292                    
P 17 -21558.211684  12889.381659  -8285.156741    593.087353                    
V 17   6557.815975  -9180.561956 -29755.574450      0.048782                    
P 18  25981.876722   5683.001548  -1062.842754    209.305164                    
V 18    722.521537   2651.198177  31877.871534     -0.090487                    
P 19 -20734.226401  16342.166868  -1954.456699    136.927966                    
V 19     57.201769  -3239.580085 -32141.695070      0.049929                    
P 20  -1036.389367  22193.209096  14727.132409    516.099539                    
V 20 -10314.871369 -15717.897029  22725.255373     -0.001843                    
P 21  -9573.849253 -15006.553205 -19258.022952    159.893826                    
V 21  25583.077761   2616.152432 -13631.871705      0.004052                    
P 22  18687.412047 -18688.228974   1666.795611    234.473049                    
V 22   3187.817664   1056.581916 -31803.371902      0.059143                    
P 23  16574.540849   6365.243663 -19794.144105    -10.513370                    
V 23   7080.904665  24066.009626  13578.371631     -0.030462                    
P 24  15425.661108  14574.554347 -16512.095204    263.487750                    
V 24 -20411.049567   -955.583441 -19866.661824     -0.041904                    
P 25  16058.185360  14031.959852  15718.930482    304.408925                    
V 25   4310.519114  20019.344528 -21601.757532      0.051204                    
P 26   8182.343259 -16992.448375  18495.349900    194.317627                    
V 26  10110.163403  21687.511049  15688.694009      0.029414                    
P 27  10017.046458 -21874.048088 -10997.911702    167.939014                    
V 27  11076.942761  -8524.985183  27945.429140      0.110509                    
P 28 -10684.313431  14038.132871 -19411.921767    374.782620                    
V 28  -6394.192272 -24900.285527 -13895.832691     -0.008591                    
P 29  16339.819997   3601.325294  20593.310491   -496.612476                    
V 29 -18663.143052  18383.314439  11508.574398     -0.043816                    
P 30 -25014.784069    814.408483  -9183.388057   -521.031589                    
V 30 -10658.029393  -5773.087922  28043.009745     -0.019034                    
P 31  17815.963111  -8525.486598  17846.396284   -170.928519                    
V 31  21712.590556   6980.733457 -17752.017724     -0.016740                    
P 32  20280.562438 -15758.825187  -6222.059951    -93.713844                    
V 32  -3286.301360   8001.120245 -30484.096668     -0.076578                    
EOF
